NORAD_CAT_ID,OBJECT_NAME,OBJECT_TYPE,EPOCH,MEAN_MOTION,ECCENTRICITY,INCLINATION,RA_OF_ASC_NODE,ARG_OF_PERICENTER,MEAN_ANOMALY,BSTAR,MEAN_MOTION_DOT,MEAN_MOTION_DDOT,TLE_LINE0,TLE_LINE1,TLE_LINE2,SEMIMAJOR_AXIS,PERIOD,APOGEE,PERIGEE,DECAYED
51773.0,STARLINK-3624,PAYLOAD,2022-08-29 22:00:00,15.08837571,0.0001558,53.2177,0.1494,54.5458,20.9715,-0.00077263,-0.00012563,0.0,0 STARLINK-3624,1 51773U 22017F   22241.91667824 -.00012563  00000-0 -77263-3 0  9996,2 51773  53.2177   0.1494 0001558  54.5458  20.9715 15.08837571  1301,6917.888000000001,95.438,540.831,538.675,0.0
51773.0,STARLINK-3624,PAYLOAD,2022-08-30 14:00:01,15.08849516,0.0001541,53.2175,357.1572,56.9642,41.7222,-0.0019268,-0.0003083,0.0,0 STARLINK-3624,1 51773U 22017F   22242.58334491 -.00030830  00000-0 -19268-2 0  9998,2 51773  53.2175 357.1572 0001541  56.9642  41.7222 15.08849516  1300,6917.851,95.437,540.7819999999998,538.65,0.0
51773.0,STARLINK-3624,PAYLOAD,2022-08-30 22:00:00,15.08840839,0.0001472,53.2171,355.6606,53.033,57.2449,-0.0024273,-0.00038712,0.0,0 STARLINK-3624,1 51773U 22017F   22242.91667824 -.00038712  00000-0 -24273-2 0  9993,2 51773  53.2171 355.6606 0001472  53.0330  57.2449 15.08840839 29809,6917.878000000002,95.438,540.761,538.725,0.0
51773.0,STARLINK-3624,PAYLOAD,2022-08-31 14:00:01,15.08830058,0.0001488,53.217,352.6685,54.3345,79.0991,-0.00060956,-9.973e-05,0.0,0 STARLINK-3624,1 51773U 22017F   22243.58334491 -.00009973  00000-0 -60956-3 0  9994,2 51773  53.2170 352.6685 0001488  54.3345  79.0991 15.08830058 29906,6917.911,95.438,540.805,538.746,0.0
51773.0,STARLINK-3624,PAYLOAD,2022-08-31 22:00:00,15.08846194,0.0001471,53.2168,351.1717,51.556,93.4521,-0.0013873,-0.00022303,0.0,0 STARLINK-3624,1 51773U 22017F   22243.91667824 -.00022303  00000-0 -13873-2 0  9997,2 51773  53.2168 351.1717 0001471  51.5560  93.4521 15.08846194  1304,6917.861,95.437,540.744,538.7090000000002,0.0
51773.0,STARLINK-3624,PAYLOAD,2022-09-01 06:00:00,15.08826347,0.0001386999999999,53.2169,349.6740000000001,60.0278,96.5751,0.0021392,0.00033909,0.0,0 STARLINK-3624,1 51773U 22017F   22244.25001157  .00033909  00000-0  21392-2 0  9993,2 51773  53.2169 349.6740 0001387  60.0278  96.5751 15.08826347 30017,6917.922,95.438,540.747,538.828,0.0
51773.0,STARLINK-3624,PAYLOAD,2022-09-01 14:00:01,15.08844148,0.0001551999999999,53.2169,348.1794,52.5756,115.6856,-0.00021086,-3.643e-05,0.0,0 STARLINK-3624,1 51773U 22017F   22244.58335648 -.00003643  00000-0 -21086-3 0  9999,2 51773  53.2169 348.1794 0001552  52.5756 115.6856 15.08844148  1309,6917.868,95.437,540.806,538.659,0.0
51773.0,STARLINK-3624,PAYLOAD,2022-09-01 22:00:00,15.08866133,0.0001513,53.2168,346.6823,50.7043,129.0893,-0.0016088,-0.00025819,0.0,0 STARLINK-3624,1 51773U 22017F   22244.91667824 -.00025819  00000-0 -16088-2 0  9994,2 51773  53.2168 346.6823 0001513  50.7043 129.0893 15.08866133 30119,6917.801,95.436,540.712,538.619,0.0
51773.0,STARLINK-3624,PAYLOAD,2022-09-02 14:00:01,15.08840556,0.0001538,53.217,343.69,48.4764,154.5526,-0.00096835,-0.00015666,0.0,0 STARLINK-3624,1 51773U 22017F   22245.58334491 -.00015666  00000-0 -96835-3 0  9997,2 51773  53.2170 343.6900 0001538  48.4764 154.5526 15.08840556  1302,6917.879,95.438,540.808,538.68,0.0
51773.0,STARLINK-3624,PAYLOAD,2022-09-02 22:00:01,15.08854286,0.000146,53.2171,342.1928,46.8052,167.8713,-0.0018816,-0.0003012,0.0,0 STARLINK-3624,1 51773U 22017F   22245.91668981 -.00030120  00000-0 -18816-2 0  9992,2 51773  53.2171 342.1928 0001460  46.8052 167.8713 15.08854286  1303,6917.837,95.437,540.712,538.692,0.0
51773.0,STARLINK-3624,PAYLOAD,2022-09-03 00:00:00,15.08846288,0.0001414,53.2173,341.8183,48.6795,258.8384,-0.00076331,-0.00012417,0.0,0 STARLINK-3624,1 51773U 22017F   22246.00001157 -.00012417  00000-0 -76331-3 0  9995,2 51773  53.2173 341.8183 0001414  48.6795 258.8384 15.08846288 30273,6917.861,95.437,540.7040000000002,538.748,0.0
51773.0,STARLINK-3624,PAYLOAD,2022-09-03 14:00:01,15.08850755,0.0001605,53.2174,339.2007,47.253,190.5696,-0.0003038999999999,-5.123e-05,0.0,0 STARLINK-3624,1 51773U 22017F   22246.58334491 -.00005123  00000-0 -30390-3 0  9999,2 51773  53.2174 339.2007 0001605  47.2530 190.5696 15.08850755  1308,6917.848000000001,95.437,540.823,538.602,0.0
51773.0,STARLINK-3624,PAYLOAD,2022-09-03 16:00:00,15.08847753,0.0001621999999999,53.2175,338.8268,46.3709,284.3597,0.00087772,0.00013711,0.0,0 STARLINK-3624,1 51773U 22017F   22246.66667824  .00013711  00000-0  87772-3 0  9993,2 51773  53.2175 338.8268 0001622  46.3709 284.3597 15.08847753 30375,6917.857,95.437,540.844,538.6,0.0
51773.0,STARLINK-3624,PAYLOAD,2022-09-03 22:00:00,15.08868735,0.0001561,53.2175,337.7034,48.3399,201.0966,-0.0031506999999999,-0.00050122,0.0,0 STARLINK-3624,1 51773U 22017F   22246.91667824 -.00050122  00000-0 -31507-2 0  9994,2 51773  53.2175 337.7034 0001561  48.3399 201.0966 15.08868735  1303,6917.793000000002,95.436,540.737,538.578,0.0
51773.0,STARLINK-3624,PAYLOAD,2022-09-04 14:00:01,15.08867783,0.000166,53.2177,334.7113,48.0138,224.7114,-0.001496,-0.00024036,0.0,0 STARLINK-3624,1 51773U 22017F   22247.58335648 -.00024036  00000-0 -14960-2 0  9993,2 51773  53.2177 334.7113 0001660  48.0138 224.7114 15.08867783 30512,6917.795,95.436,540.809,538.512,0.0
51773.0,STARLINK-3624,PAYLOAD,2022-09-04 20:00:01,15.0887043,0.0001624,53.2174,333.5886,46.4788,144.8966,-0.0036485,-0.00057935,0.0,0 STARLINK-3624,1 51773U 22017F   22247.83334491 -.00057935  00000-0 -36485-2 0  9996,2 51773  53.2174 333.5886 0001624  46.4788 144.8966 15.08870430  1301,6917.7869999999975,95.436,540.776,538.529,0.0
51773.0,STARLINK-3624,PAYLOAD,2022-09-05 14:00:01,15.08629958,0.000166,53.2179,330.224,48.684,258.7996,0.017896,0.00294973,0.0,0 STARLINK-3624,1 51773U 22017F   22248.58334491  .00294973  00000-0  17896-1 0  9996,2 51773  53.2179 330.2240 0001660  48.6840 258.7996 15.08629958 30663,6918.522,95.451,541.536,539.239,0.0
51773.0,STARLINK-3624,PAYLOAD,2022-09-05 22:00:00,15.08860057,0.0001588,53.2175,328.7249,50.5707,268.4662,-0.0040531,-0.00064253,0.0,0 STARLINK-3624,1 51773U 22017F   22248.91667824 -.00064253  00000-0 -40531-2 0  9993,2 51773  53.2175 328.7249 0001588  50.5707 268.4662 15.08860057  1307,6917.819,95.436,540.783,538.586,0.0
51773.0,STARLINK-3624,PAYLOAD,2022-09-06 06:00:00,15.08824465,0.0001476,53.2177,327.2281,55.4122,275.213,0.0012754,0.0002005999999999,0.0,0 STARLINK-3624,1 51773U 22017F   22249.25001157  .00020060  00000-0  12754-2 0  9994,2 51773  53.2177 327.2281 0001476  55.4122 275.2130 15.08824465 30761,6917.928000000001,95.439,540.814,538.7719999999998,0.0
51773.0,STARLINK-3624,PAYLOAD,2022-09-06 14:00:01,15.08820377,0.0001665,53.2175,325.7336,49.1124,293.091,0.00076899,0.00011965,0.0,0 STARLINK-3624,1 51773U 22017F   22249.58334491  .00011965  00000-0  76899-3 0  9995,2 51773  53.2175 325.7336 0001665  49.1124 293.0910 15.08820377  1305,6917.94,95.439,540.957,538.654,0.0
51773.0,STARLINK-3624,PAYLOAD,2022-09-06 22:00:00,15.08829564,0.0001614,53.2171,324.236,52.5806,301.2023,-0.0021506999999999,-0.00034344,0.0,0 STARLINK-3624,1 51773U 22017F   22249.91667824 -.00034344  00000-0 -21507-2 0  9994,2 51773  53.2171 324.2360 0001614  52.5806 301.2023 15.08829564 30868,6917.9119999999975,95.438,540.894,538.661,0.0
51773.0,STARLINK-3624,PAYLOAD,2022-09-07 14:00:01,15.08806479,0.0001759,53.217,321.245,51.1031,325.8171,0.0021795,0.00034537,0.0,0 STARLINK-3624,1 51773U 22017F   22250.58334491  .00034537  00000-0  21795-2 0  9991,2 51773  53.2170 321.2450 0001759  51.1031 325.8171 15.08806479 30966,6917.983,95.44,541.065,538.631,0.0
51773.0,STARLINK-3624,PAYLOAD,2022-09-07 22:00:00,15.0883487,0.0001653,53.2167,319.7472,53.6774,334.8114,-0.0006744,-0.00011004,0.0,0 STARLINK-3624,1 51773U 22017F   22250.91667824 -.00011004  00000-0 -67440-3 0  9991,2 51773  53.2167 319.7472 0001653  53.6774 334.8114 15.08834870  1301,6917.896,95.438,540.905,538.618,0.0
51773.0,STARLINK-3624,PAYLOAD,2022-09-08 14:00:01,15.08826793,0.0001795,53.2165,316.7562,50.1548,1.5236,0.002588,0.00041126,0.0,0 STARLINK-3624,1 51773U 22017F   22251.58334491  .00041126  00000-0  25880-2 0  9993,2 51773  53.2165 316.7562 0001795  50.1548   1.5236 15.08826793  1302,6917.920999999999,95.438,541.028,538.544,0.0
51773.0,STARLINK-3624,PAYLOAD,2022-09-08 22:00:00,15.08866303,0.0001652,53.2164,315.2582,51.7459,11.5342,-0.0028986,-0.00046157,0.0,0 STARLINK-3624,1 51773U 22017F   22251.91667824 -.00046157  00000-0 -28986-2 0  9990,2 51773  53.2164 315.2582 0001652  51.7459  11.5342 15.08866303  1307,6917.8,95.436,540.808,538.5219999999998,0.0
51773.0,STARLINK-3624,PAYLOAD,2022-09-09 00:00:02,15.08836595,0.0001591,53.2163,314.8838,52.1535,104.1016,0.00045054,6.889e-05,0.0,0 STARLINK-3624,1 51773U 22017F   22252.00002315  .00006889  00000-0  45054-3 0  9991,2 51773  53.2163 314.8838 0001591  52.1535 104.1016 15.08836595 31172,6917.891,95.438,540.856,538.655,0.0
51773.0,STARLINK-3624,PAYLOAD,2022-09-09 14:00:01,15.08835445,0.0001759,53.2163,312.2671,45.331,41.1563,0.00025164,3.719e-05,0.0,0 STARLINK-3624,1 51773U 22017F   22252.58334491  .00003719  00000-0  25164-3 0  9996,2 51773  53.2163 312.2671 0001759  45.3310  41.1563 15.08835445  1302,6917.894,95.438,540.976,538.5419999999998,0.0
51773.0,STARLINK-3624,PAYLOAD,2022-09-09 22:00:00,15.08823944,0.0001582,53.2163,310.7691,46.8035,51.2812,0.0003174,4.765e-05,0.0,0 STARLINK-3624,1 51773U 22017F   22252.91667824  .00004765  00000-0  31740-3 0  9991,2 51773  53.2163 310.7691 0001582  46.8035  51.2812 15.08823944  1301,6917.929,95.439,540.889,538.7,0.0
51773.0,STARLINK-3624,PAYLOAD,2022-09-10 06:00:02,15.08852107,0.0001645,53.2164,309.2727,49.6459,60.085,-0.0005199,-8.556e-05,0.0,0 STARLINK-3624,1 51773U 22017F   22253.25002315 -.00008556  00000-0 -51990-3 0  9990,2 51773  53.2164 309.2727 0001645  49.6459  60.0850 15.08852107 31368,6917.843000000003,95.437,540.846,538.57,0.0
